P/2012 K3 (Gibbs),e,13.1891,125.8196,172.2415,3.628470,0.1425997,0.42252732,176.1214,01/03.0/2023,2000,g 15.0,4.0
# From MPC 88326
P/2012 NJ (La Sagra),e,84.5699,315.5928,338.3854,8.466034,0.0400114,0.84674523,154.1918,01/03.0/2023,2000,g 14.5,4.0
# From MPC 81470
P/2012 O1 (McNaught),e,7.4270,91.9294,238.3298,3.541696,0.1478724,0.59428265,207.3216,01/03.0/2023,2000,g 17.5,4.0
# From MPC 80899
P/2012 O2 (McNaught),e,24.4687,120.6835,183.4771,3.626229,0.1427320,0.53200499,191.0052,01/03.0/2023,2000,g 17.0,4.0
# From MPC 82320
P/2012 T2 (PANSTARRS),e,12.5677,73.7161,310.7708,5.727927,0.0718965,0.16234961,254.0459,01/03.0/2023,2000,g 10.0,4.0
# From MPC 80900
P/2012 T3 (PANSTARRS),e,9.5582,114.3686,195.5413,6.151258,0.0646038,0.61669103,251.5593,01/03.0/2023,2000,g 15.0,4.0
# From MPC 82720
P/2012 U2 (PANSTARRS),e,10.7598,185.3263,228.2575,7.131851,0.0517488,0.49998243,191.4863,01/03.0/2023,2000,g 12.5,4.0
# From MPC 84024
P/2012 US27 (Siding Spring),e,39.3689,49.2066,0.8269,5.164687,0.0839727,0.64826537,304.8094,01/03.0/2023,2000,g 13.5,4.0
# From MPC 82721
P/2012 WA34 (Lemmon-PANSTARRS),e,6.0817,93.5582,356.5913,4.681230,0.0973115,0.34387746,341.8391,01/03.0/2023,2000,g 13.5,4.0
# From MPC 82721
P/2013 AL76 (Catalina),e,144.8711,146.0137,27.0409,6.499663,0.0594796,0.68597590,219.1682,01/03.0/2023,2000,g 16.0,4.0
# From MPEC 2022-K19
P/2013 EW90,e,31.7918,160.2905,346.0481,4.112409,0.1181843,0.19467438,81.3035,01/03.0/2023,2000,g 14.3,4.0
# From MPC 91612
P/2013 G1 (Kowalski),e,5.4580,221.3105,51.5465,6.897556,0.0544078,0.51118599,180.2050,01/03.0/2023,2000,g 11.0,4.0
# From MPC 84025
P/2013 G4 (PANSTARRS),e,5.9160,339.6339,214.6245,4.438320,0.1054086,0.40919516,20.8422,01/03.0/2023,2000,g 15.0,4.0
# From MPC 91613
P/2013 J2 (McNaught),e,15.5106,289.3443,37.8730,6.223147,0.0634876,0.65733322,216.5899,01/03.0/2023,2000,g 13.0,4.0
# From MPC 86229
P/2013 N3 (PANSTARRS),e,2.1737,17.4727,323.9746,7.395358,0.0490078,0.59301119,158.8131,01/03.0/2023,2000,g 13.0,4.0
# From MPC 85834
P/2013 N5 (PANSTARRS),e,23.4621,187.1552,176.9447,6.797023,0.0556194,0.73251857,192.7771,01/03.0/2023,2000,g 17.0,4.0
# From MPC 85834
P/2013 P1 (PANSTARRS),e,18.7231,160.5996,138.2537,8.582385,0.0392005,0.60455766,140.9694,01/03.0/2023,2000,g 12.0,4.0
# From MPEC 2022-V95
P/2013 R3 (Catalina-PANSTARRS),e,0.8651,341.9796,11.2834,3.032024,0.1866832,0.27562803,277.4195,01/03.0/2023,2000,g 14.0,4.0
# From unp
P/2013 R3-A (Catalina-PANSTARRS),e,0.8642,341.9345,11.3624,3.031778,0.1867059,0.27555869,277.4790,01/03.0/2023,2000,g  9.0,4.0
# From MPEC 2015-M77
P/2013 R3-B (Catalina-PANSTARRS),e,0.8654,341.9904,11.2971,3.031998,0.1866855,0.27560398,277.4139,01/03.0/2023,2000,g  9.0,4.0
# From MPC 85835
P/2013 T1 (PANSTARRS),e,24.3034,10.0804,346.1691,5.856774,0.0695371,0.62429298,238.8431,01/03.0/2023,2000,g 16.5,4.0
# From MPC 86643
P/2013 T2 (Schwartz),e,9.4573,0.8011,345.5831,3.491853,0.1510498,0.50106507,170.5393,01/03.0/2023,2000,g 16.0,4.0
# From MPC 91613
P/2013 W1 (PANSTARRS),e,4.6966,117.8399,1.2280,3.487465,0.1513350,0.59290348,127.8438,01/03.0/2023,2000,g 17.5,4.0
# From MPC101095
P/2013 YG46 (Spacewatch),e,7.8576,48.8366,242.6021,3.273652,0.1664007,0.45461038,359.4519,01/03.0/2023,2000,g 10.0,4.0
# From MPC 89728
P/2014 A2 (Hill),e,24.5460,106.6330,356.1458,5.927192,0.0683015,0.64569568,230.3251,01/03.0/2023,2000,g 15.0,4.0
# From MPC 92981
P/2014 A3 (PANSTARRS),e,13.7168,229.9772,214.1293,4.608151,0.0996355,0.24658874,349.1070,01/03.0/2023,2000,g 12.0,4.0
# From MPC102095
P/2014 C1 (TOTAS),e,2.6933,167.8194,23.9348,3.032135,0.1866729,0.45120902,253.4086,01/03.0/2023,2000,g 15.5,4.0
# From MPEC 2022-WD2
C/2014 F3 (Sheppard-Trujillo),e,6.5401,326.3680,4.5185,14.58159,0.0177010,0.60850944,10.3327,01/03.0/2023,2000,g  6.0,4.0
# From MPC 98560
P/2014 L2 (NEOWISE),e,5.1987,149.3463,182.7193,6.305347,0.0622502,0.64790201,192.1661,01/03.0/2023,2000,g 12.0,4.0
# From MPC 90769
P/2014 L3 (Hill),e,6.2672,115.4942,178.7071,8.178241,0.0421419,0.77267854,131.0068,01/03.0/2023,2000,g 16.0,4.0
# From MPC 91614
P/2014 M4 (PANSTARRS),e,3.3433,263.1849,148.0413,5.868331,0.0693317,0.59562311,202.9040,01/03.0/2023,2000,g 15.0,4.0
# From MPEC 2022-K19
P/2014 MG4 (Spacewatch-PANSTARRS),e,9.3667,311.7264,299.0371,5.013365,0.0878031,0.25890522,306.1311,01/03.0/2023,2000,g  9.5,4.0
# From MPC 98560
P/2014 O3 (PANSTARRS),e,7.7959,87.6399,204.7870,7.576762,0.0472584,0.38441315,150.3754,01/03.0/2023,2000,g 10.5,4.0
# From MPEC 2022-WQ9
C/2014 OG392 (PANSTARRS),e,9.0329,145.8027,254.3802,12.25392,0.0229769,0.18634477,8.9785,01/03.0/2023,2000,g  6.0,4.0
# From MPC 91616
P/2014 U4 (PANSTARRS),e,6.4291,11.8848,347.8381,3.508871,0.1499522,0.46485101,103.2190,01/03.0/2023,2000,g 18.0,4.0
# From MPEC 2022-YN2
C/2014 UN271 (Bernardinelli-Bernstein),h,01/22.1573/2031,95.4296,189.8966,326.2401,1.000988,10.946208,2000,2.5,3.2
# From MPC 95211
P/2014 V1 (PANSTARRS),e,22.5253,166.1992,177.6563,5.479464,0.0768417,0.53443336,222.6375,01/03.0/2023,2000,g 14.0,4.0
# From MPC 93586
P/2014 W1 (PANSTARRS),e,8.8359,246.2289,152.1297,4.467152,0.1043898,0.38940400,323.4429,01/03.0/2023,2000,g 15.5,4.0
# From MPC105542
P/2014 W4 (PANSTARRS),e,15.2833,33.3888,67.5944,6.588335,0.0582828,0.35336893,149.2176,01/03.0/2023,2000,g 11.0,4.0
# From MPC 94281
P/2014 X1 (Elenin),e,26.0481,61.5650,33.8678,6.204760,0.0637700,0.70959886,186.4576,01/03.0/2023,2000,g 15.0,4.0
# From MPC 92275
P/2015 A3 (PANSTARRS),e,172.5412,277.3252,249.4620,7.815359,0.0451108,0.85035407,129.7697,01/03.0/2023,2000,g 20.0,4.0
# From MPC 99270
P/2015 B1 (PANSTARRS),e,18.0538,352.9203,188.8711,9.490402,0.0337114,0.36647861,90.1013,01/03.0/2023,2000,g  8.5,4.0
# From MPC109141
P/2015 B4 (Lemmon-PANSTARRS),e,1.7634,266.0637,227.2504,8.516593,0.0396557,0.56059454,114.6665,01/03.0/2023,2000,g 11.0,4.0
# From MPC101096
P/2015 C1 (TOTAS-Gibbs),e,13.9185,348.7923,178.1043,6.574483,0.0584671,0.56100626,164.4388,01/03.0/2023,2000,g 12.5,4.0
# From MPC109141
P/2015 D5 (Kowalski),e,20.5343,74.0727,39.6580,8.953594,0.0367882,0.48996203,117.6786,01/03.0/2023,2000,g  9.0,4.0
# From MPC 96866
P/2015 D6 (Lemmon-PANSTARRS),e,20.2065,45.8567,125.0088,7.135767,0.0517063,0.36135791,142.0829,01/03.0/2023,2000,g 10.5,4.0
# From MPEC 2021-P47
P/2015 HG16 (PANSTARRS),e,18.8608,57.4193,47.5092,4.781631,0.0942627,0.35209281,298.2334,01/03.0/2023,2000,g 12.5,4.0
# From MPC 95213
P/2015 K5 (PANSTARRS),e,39.9430,134.2161,106.3173,6.726461,0.0564968,0.55186845,156.6972,01/03.0/2023,2000,g 13.5,4.0
# From MPC107684
P/2015 M2 (PANSTARRS),e,3.9694,86.5832,225.9958,7.243520,0.0505568,0.17976355,134.9184,01/03.0/2023,2000,g  8.5,4.0
# From MPEC 2021-P47
C/2015 O1 (PANSTARRS),h,02/20.2149/2018,127.1742,299.8265,89.5310,1.001407,3.720556,2000,6.5,4.0
# From MPC 99819
P/2015 P4 (PANSTARRS),e,8.7177,104.6783,280.6737,6.046698,0.0662867,0.58573782,168.1187,01/03.0/2023,2000,g 14.0,4.0
# From MPEC 2022-K19
P/2015 PD229 (Cameron-ISON),e,2.0249,342.6594,352.6949,7.193148,0.0510888,0.32752864,137.6926,01/03.0/2023,2000,g 11.5,2.0
# From MPC 96867
P/2015 Q2 (Pimentel),e,146.5498,228.5347,244.6480,7.353449,0.0494274,0.75065945,132.1958,01/03.0/2023,2000,g 15.5,4.0
# From MPC 98562
P/2015 R1 (PANSTARRS),e,22.6985,48.3255,300.5831,5.880568,0.0691155,0.63427665,189.5761,01/03.0/2023,2000,g 14.0,4.0
# From MPC 95734
P/2015 R2 (PANSTARRS),e,15.4849,168.5963,149.8565,4.485354,0.1037550,0.45275556,286.0785,01/03.0/2023,2000,g 14.5,4.0
# From MPC 96280
P/2015 T3 (PANSTARRS),e,13.0937,120.5019,178.6330,4.326181,0.1095335,0.50818108,359.9227,12/21.0/2014,2000,g 14.0,4.0
# From MPC102953
P/2015 TO19 (Lemmon-PANSTARRS),e,6.5009,321.6273,89.1872,4.551847,0.1014898,0.35936630,252.9155,01/03.0/2023,2000,g 14.0,4.0
# From MPC110080
P/2015 TP200 (LINEAR),e,8.7805,7.0184,82.4398,7.264622,0.0503367,0.53624357,113.6172,01/03.0/2023,2000,g 11.0,4.0
# From MPC115881
C/2015 V1 (PANSTARRS),e,139.2312,197.1382,179.7123,2445,0.0000082,0.99824862,0.0000,12/16.4609/2017,2000,g  6.5,4.0
# From MPC101098
P/2015 W2 (Catalina),e,11.6102,294.1456,117.5581,7.290744,0.0500664,0.63528406,132.5556,01/03.0/2023,2000,g 13.0,4.0
# From MPEC 2022-OB6
C/2015 XY1 (Lemmon),e,148.8516,281.5711,196.1379,24218,0.0000003,0.99967275,0.0000,04/25.4702/2018,2000,g  5.5,4.0
# From MPEC 2022-OB6
P/2015 X3 (PANSTARRS),e,24.4039,77.2701,306.7627,5.003236,0.0880699,0.44005361,237.7861,01/03.0/2023,2000,g 15.0,4.0
# From MPC119995
C/2015 X5 (PANSTARRS),e,124.3205,122.3035,27.5400,8627,0.0000012,0.99921235,0.0000,12/27.0501/2017,2000,g  7.5,4.0
# From MPC115881
P/2015 X6 (PANSTARRS),e,4.5649,106.9323,329.7822,2.752315,0.2158523,0.17317157,174.3672,01/03.0/2023,2000,g 16.0,4.0
# From MPEC 2022-O08
C/2016 A1 (PANSTARRS),e,121.2169,128.1640,10.0835,6548,0.0000019,0.99918809,0.0000,11/20.6311/2017,2000,g  6.0,4.0
# From MPC100282
P/2016 A2 (Christensen),e,26.4037,291.6179,141.2852,4.753616,0.0950973,0.27089847,262.6012,01/03.0/2023,2000,g 11.5,4.0
# From MPEC 2022-OB6
P/2016 A3 (PANSTARRS),e,8.5110,187.2220,340.9153,7.879695,0.0445595,0.38603001,92.6001,01/03.0/2023,2000,g 10.0,4.0
# From MPC102098
P/2016 A7 (PANSTARRS),e,16.6030,221.4972,352.5253,5.035181,0.0872331,0.56444687,218.9439,01/03.0/2023,2000,g 16.0,4.0
# From MPC109143
P/2016 BA14 (PANSTARRS),e,18.8969,180.5132,351.9695,3.026718,0.1871743,0.66449090,105.7452,01/03.0/2023,2000,g 21.0,4.0
# From MPEC 2021-P47
P/2016 G1 (PANSTARRS),e,10.9711,204.0180,111.1473,2.582796,0.2374482,0.21071950,154.8707,01/03.0/2023,2000,g 14.0,4.0
# From MPEC 2017-D91
P/2016 J1-A (PANSTARRS),e,14.3291,199.8091,47.0720,3.172628,0.1744116,0.22770020,55.1188,01/03.0/2023,2000,g 16.5,4.0
# From MPEC 2017-A77
P/2016 J1-B (PANSTARRS),e,14.3319,199.8139,46.9634,3.172264,0.1744416,0.22755103,55.2660,01/03.0/2023,2000,g 17.0,4.0
# From MPEC 2022-ED3
C/2016 M1 (PANSTARRS),e,90.8725,92.2605,209.9363,74129,0.0000000,0.99997013,0.0000,08/10.5162/2018,2000,g  5.0,4.0
# From MPEC 2021-P47
